{"version": 0.6, "generator": "Overpass API 0.7.62.1 084b4234", "osm3s": {"timestamp_osm_base": "2024-10-30T01:35:14Z", "copyright": "The data included in this document is from www.openstreetmap.org. The data is made available under ODbL."}, "elements": [{"type": "node", "id": 3086356359, "lat": 33.9049948, "lon": -84.4636156, "tags": {"bus": "yes", "highway": "bus_stop", "name": "Powers Ferry Rd & Windy Hill Rd", "network": "CobbLinc", "network:wikidata": "Q5138753", "network:wikipedia": "en:CobbLinc", "operator": "Cobb Community Transit (CCT)", "public_transport": "platform", "ref": "920461", "route_ref": "10B;50", "shelter": "no", "website": "https://www.cobbcounty.org/cct/"}}, {"type": "node", "id": 3086356360, "lat": 33.9051384, "lon": -84.4632253, "tags": {"bus": "yes", "highway": "bus_stop", "name": "Powers Ferry Rd & Windy Hill Rd", "network": "CobbLinc", "network:wikidata": "Q5138753", "network:wikipedia": "en:CobbLinc", "operator": "Cobb Community Transit (CCT)", "public_transport": "platform", "ref": "920399", "route_ref": "50", "shelter": "no", "website": "https://www.cobbcounty.org/cct/"}}, {"type": "node", "id": 3086476959, "lat": 33.9085131, "lon": -84.4652095, "tags": {"bus": "yes", "highway": "bus_stop", "name": "Powers Ferry Rd & Custom Signs Building", "network": "CobbLinc", "network:wikidata": "Q5138753", "network:wikipedia": "en:CobbLinc", "operator": "Cobb Community Transit (CCT)", "public_transport": "platform", "ref": "920062", "route_ref": "15;50", "shelter": "no", "website": "https://www.cobbcounty.org/cct/"}}, {"type": "node", "id": 3086476960, "lat": 33.9091036, "lon": -84.4650023, "tags": {"bus": "yes", "highway": "bus_stop", "name": "Powers Ferry Rd & Powers Ridge Office Park", "network": "CobbLinc", "network:wikidata": "Q5138753", "network:wikipedia": "en:CobbLinc", "operator": "Cobb Community Transit (CCT)", "public_transport": "platform", "ref": "920400", "route_ref": "50", "shelter": "yes", "website": "https://www.cobbcounty.org/cct/"}}, {"type": "node", "id": 3086476961, "lat": 33.9107041, "lon": -84.465011, "tags": {"bus": "yes", "highway": "bus_stop", "name": "Powers Ferry Rd & Carithers Flowers", "network": "CobbLinc", "network:wikidata": "Q5138753", "network:wikipedia": "en:CobbLinc", "operator": "Cobb Community Transit (CCT)", "public_transport": "platform", "ref": "920564", "route_ref": "50", "shelter": "no", "website": "https://www.cobbcounty.org/cct/"}}, {"type": "node", "id": 3086476962, "lat": 33.9131465, "lon": -84.4653637, "tags": {"highway": "bus_stop", "operator": "Cobb Community Transit (CCT)", "route_ref": "15;50", "shelter": "no", "website": "https://www.cobbcounty.org/cct/"}}, {"type": "node", "id": 3086476963, "lat": 33.9135144, "lon": -84.4650345, "tags": {"highway": "bus_stop", "operator": "Cobb Community Transit (CCT)", "route_ref": "50", "shelter": "no", "website": "https://www.cobbcounty.org/cct/"}}, {"type": "node", "id": 3086476965, "lat": 33.9169619, "lon": -84.466699, "tags": {"highway": "bus_stop", "operator": "Cobb Community Transit (CCT)", "shelter": "yes", "website": "https://www.cobbcounty.org/cct/"}}, {"type": "node", "id": 3092637674, "lat": 33.9000982, "lon": -84.4683869, "tags": {"bus": "yes", "highway": "bus_stop", "name": "Interstate North Pkwy & 180 Building", "network": "CobbLinc", "network:wikidata": "Q5138753", "network:wikipedia": "en:CobbLinc", "operator": "Cobb Community Transit (CCT)", "public_transport": "platform", "ref": "920660", "route_ref": "10B", "shelter": "no", "website": "https://www.cobbcounty.org/cct/"}}, {"type": "node", "id": 3092637675, "lat": 33.9006974, "lon": -84.4669354, "tags": {"bench": "no", "bus": "yes", "highway": "bus_stop", "name": "Interstate North Pkwy & 180 Building", "network": "CobbLinc", "network:wikidata": "Q5138753", "network:wikipedia": "en:CobbLinc", "operator": "Cobb Community Transit (CCT)", "public_transport": "platform", "ref": "920661", "route_ref": "10B", "shelter": "no", "website": "https://www.cobbcounty.org/cct/"}}, {"type": "node", "id": 3092637676, "lat": 33.9013517, "lon": -84.4659265, "tags": {"bench": "no", "bin": "no", "bus": "yes", "highway": "bus_stop", "name": "Interstate North Pkwy & 150 Building", "network": "CobbLinc", "network:wikidata": "Q5138753", "network:wikipedia": "en:CobbLinc", "operator": "Cobb Community Transit (CCT)", "public_transport": "platform", "ref": "920556", "route_ref": "10B", "shelter": "no", "website": "https://www.cobbcounty.org/cct/"}}, {"type": "node", "id": 3092637677, "lat": 33.9022822, "lon": -84.4655375, "tags": {"bus": "yes", "highway": "bus_stop", "name": "Interstate North Pkwy & 150 Building", "network": "CobbLinc", "network:wikidata": "Q5138753", "network:wikipedia": "en:CobbLinc", "operator": "Cobb Community Transit (CCT)", "public_transport": "platform", "ref": "920662", "route_ref": "10B", "shelter": "no", "website": "https://www.cobbcounty.org/cct/"}}, {"type": "node", "id": 3092637678, "lat": 33.903668, "lon": -84.4660885, "tags": {"bus": "yes", "highway": "bus_stop", "name": "Interstate North Pkwy & Windy Hill Rd", "network": "CobbLinc", "network:wikidata": "Q5138753", "network:wikipedia": "en:CobbLinc", "operator": "Cobb Community Transit (CCT)", "public_transport": "platform", "ref": "920557", "route_ref": "10B", "shelter": "no", "website": "https://www.cobbcounty.org/cct/"}}, {"type": "node", "id": 3125012863, "lat": 33.9140678, "lon": -84.47191, "tags": {"bench": "no", "highway": "bus_stop", "operator": "Cobb Community Transit (CCT)", "route_ref": "10A", "shelter": "no", "website": "https://www.cobbcounty.org/cct/"}}, {"type": "node", "id": 3125012864, "lat": 33.9147223, "lon": -84.4724984, "tags": {"bench": "no", "highway": "bus_stop", "operator": "Cobb Community Transit (CCT)", "shelter": "no", "website": "https://www.cobbcounty.org/cct/"}}, {"type": "node", "id": 3125012865, "lat": 33.9173736, "lon": -84.4754324, "tags": {"bus": "yes", "highway": "bus_stop", "operator": "Cobb Community Transit (CCT)", "public_transport": "platform", "route_ref": "10A", "shelter": "yes", "website": "https://www.cobbcounty.org/cct/"}}, {"type": "node", "id": 3125012866, "lat": 33.9216366, "lon": -84.4764294, "tags": {"bench": "no", "bus": "yes", "highway": "bus_stop", "operator": "Cobb Community Transit (CCT)", "public_transport": "platform", "route_ref": "10A", "shelter": "no", "website": "https://www.cobbcounty.org/cct/"}}, {"type": "node", "id": 3125012867, "lat": 33.9218111, "lon": -84.4763498, "tags": {"bench": "no", "bus": "yes", "highway": "bus_stop", "operator": "Cobb Community Transit (CCT)", "public_transport": "platform", "shelter": "no", "website": "https://www.cobbcounty.org/cct/"}}, {"type": "node", "id": 3125012868, "lat": 33.922538, "lon": -84.4796277, "tags": {"bus": "yes", "highway": "bus_stop", "operator": "Cobb Community Transit (CCT)", "public_transport": "platform", "route_ref": "50", "shelter": "no", "website": "https://www.cobbcounty.org/cct/"}}, {"type": "node", "id": 3125012869, "lat": 33.9228025, "lon": -84.4799762, "tags": {"bus": "yes", "highway": "bus_stop", "operator": "Cobb Community Transit (CCT)", "public_transport": "platform", "shelter": "yes", "website": "https://www.cobbcounty.org/cct/"}}, {"type": "node", "id": 3203869737, "lat": 33.8954748, "lon": -84.4802929, "tags": {"bus": "yes", "highway": "bus_stop", "operator": "Cobb Community Transit (CCT", "public_transport": "platform", "shelter": "yes", "tactile_paving": "no"}}, {"type": "node", "id": 5579314246, "lat": 33.9035465, "lon": -84.46013, "tags": {"bus": "yes", "highway": "bus_stop", "name": "Powers Ferry Rd & Parkwood Circle", "network": "CobbLinc", "network:wikidata": "Q5138753", "network:wikipedia": "en:CobbLinc", "operator": "CobbLinc", "public_transport": "stop_position", "ref": "920462", "route_ref": "50"}}, {"type": "node", "id": 5579314251, "lat": 33.9037249, "lon": -84.4601544, "tags": {"bus": "yes", "highway": "bus_stop", "name": "Powers Ferry Rd & Parkwood Circle", "network": "CobbLinc", "network:wikidata": "Q5138753", "network:wikipedia": "en:CobbLinc", "operator": "CobbLinc", "public_transport": "stop_position", "ref": "920398", "route": "bus", "route_ref": "10B;50"}}, {"type": "node", "id": 11667089148, "lat": 33.8836954, "lon": -84.4619047, "tags": {"bench": "yes", "bin": "yes", "bus": "yes", "departures_board": "no", "highway": "bus_stop", "network": "CobbLinc", "public_transport": "platform", "shelter": "yes", "tactile_paving": "no"}}, {"type": "node", "id": 11838360814, "lat": 33.9012831, "lon": -84.4796067, "tags": {"bench": "yes", "bin": "yes", "bus": "yes", "highway": "bus_stop", "lit": "yes", "public_transport": "platform", "ref": "920138", "shelter": "yes", "tactile_paving": "no"}}, {"type": "node", "id": 11869790854, "lat": 33.8844662, "lon": -84.4603686, "tags": {"bench": "yes", "bin": "yes", "bus": "yes", "highway": "bus_stop", "public_transport": "platform", "shelter": "yes", "tactile_paving": "no"}}, {"type": "node", "id": 11869797692, "lat": 33.8834016, "lon": -84.4618798, "tags": {"bench": "yes", "bin": "yes", "bus": "yes", "highway": "bus_stop", "public_transport": "platform", "shelter": "yes", "tactile_paving": "no"}}, {"type": "node", "id": 12157032002, "lat": 33.9395601, "lon": -84.5086223, "tags": {"bus": "yes", "highway": "bus_stop", "name": "S Marietta Pkwy @ Franklin Gateway", "network": "CobbLinc", "network:wikidata": "Q5138753", "public_transport": "platform"}}]}